NORAD_CAT_ID,OBJECT_NAME,OBJECT_TYPE,EPOCH,MEAN_MOTION,ECCENTRICITY,INCLINATION,RA_OF_ASC_NODE,ARG_OF_PERICENTER,MEAN_ANOMALY,BSTAR,MEAN_MOTION_DOT,MEAN_MOTION_DDOT,TLE_LINE0,TLE_LINE1,TLE_LINE2,SEMIMAJOR_AXIS,PERIOD,APOGEE,PERIGEE,DECAYED
53537.0,STARLINK-4120,PAYLOAD,2024-07-24 08:24:35,15.08871434,9.83e-05,53.2153,217.6959,87.3543,272.7562,0.00041426,6.317e-05,0.0,0 STARLINK-4120,1 53537U 22101L   24206.35041125  .00006317  00000-0  41426-3 0  9991,2 53537  53.2153 217.6959 0000983  87.3543 272.7562 15.08871434106596,6917.784,95.436,540.329,538.969,0.0
53537.0,STARLINK-4120,PAYLOAD,2024-07-25 05:04:33,15.08895086,9.08e-05,53.2147,213.8267,124.1565,235.9513,0.0004569,7.002e-05,0.0,0 STARLINK-4120,1 53537U 22101L   24207.21149541  .00007002  00000-0  45690-3 0  9997,2 53537  53.2147 213.8267 0000908 124.1565 235.9513 15.08895086106721,6917.712,95.434,540.205,538.949,0.0
53537.0,STARLINK-4120,PAYLOAD,2024-07-25 06:39:58,15.08860887,6.86e-05,53.2146,213.5385,121.6118,238.4941,0.00029414,4.399e-05,0.0,0 STARLINK-4120,1 53537U 22101L   24207.27775494  .00004399  00000-0  29414-3 0  9997,2 53537  53.2146 213.5385 0000686 121.6118 238.4941 15.08860887106732,6917.817,95.436,540.156,539.207,0.0
53537.0,STARLINK-4120,PAYLOAD,2024-07-25 09:50:48,15.08800414,0.0001221,53.2139,212.9445,51.426,308.6841,-0.00020263,-3.508e-05,0.0,0 STARLINK-4120,1 53537U 22101L   24207.41028484 -.00003508  00000-0 -20263-3 0  9999,2 53537  53.2139 212.9445 0001221  51.4260 308.6841 15.08800414106759,6918.001,95.44,540.711,539.022,0.0
53537.0,STARLINK-4120,PAYLOAD,2024-07-26 04:55:25,15.08846245,0.0001472,53.2149,209.3714,98.7845,261.3313,-0.00041086,-6.822e-05,0.0,0 STARLINK-4120,1 53537U 22101L   24208.20516202 -.00006822  00000-0 -41086-3 0  9995,2 53537  53.2149 209.3714 0001472  98.7845 261.3313 15.08846245106874,6917.861,95.437,540.745,538.708,0.0
53537.0,STARLINK-4120,PAYLOAD,2024-07-26 06:30:48,15.08856521,9.02e-05,53.2152,209.0697,104.3204,255.7888,-0.00034983,-5.853e-05,0.0,0 STARLINK-4120,1 53537U 22101L   24208.27139241 -.00005853  00000-0 -34983-3 0  9997,2 53537  53.2152 209.0697 0000902 104.3204 255.7888 15.08856521106888,6917.83,95.437,540.319,539.071,0.0
53537.0,STARLINK-4120,PAYLOAD,2024-07-26 17:38:30,15.08854714,0.0001309,53.2157,206.9904,70.9716,289.1418,-0.00034337,-5.751e-05,0.0,0 STARLINK-4120,1 53537U 22101L   24208.73507062 -.00005751  00000-0 -34337-3 0  9998,2 53537  53.2157 206.9904 0001309  70.9716 289.1418 15.08854714106958,6917.835,95.437,540.606,538.795,0.0
53537.0,STARLINK-4120,PAYLOAD,2024-07-27 06:21:34,15.08853869,0.0001149,53.2158,204.6117,76.2664,283.8456,-0.00023619,-4.046e-05,0.0,0 STARLINK-4120,1 53537U 22101L   24209.26498257 -.00004046  00000-0 -23619-3 0  9999,2 53537  53.2158 204.6117 0001149  76.2664 283.8456 15.08853869107036,6917.838,95.437,540.498,538.908,0.0
53537.0,STARLINK-4120,PAYLOAD,2024-07-27 09:32:20,15.08849199,0.0001414,53.2157,204.0173,95.9977,264.1177,-0.00015674,-2.782e-05,0.0,0 STARLINK-4120,1 53537U 22101L   24209.39746306 -.00002782  00000-0 -15674-3 0  9991,2 53537  53.2157 204.0173 0001414  95.9977 264.1177 15.08849199107056,6917.852,95.437,540.695,538.739,0.0
53537.0,STARLINK-4120,PAYLOAD,2024-07-28 04:36:59,15.08842898,0.0001591,53.2151,200.4489,69.4555,290.6608,0.00033514,5.05e-05,0.0,0 STARLINK-4120,1 53537U 22101L   24210.19235518  .00005050  00000-0  33514-3 0  9991,2 53537  53.2151 200.4489 0001591  69.4555 290.6608 15.08842898107179,6917.872,95.437,540.837,538.636,0.0
53537.0,STARLINK-4120,PAYLOAD,2024-07-28 09:23:08,15.08848351,0.0001609,53.215,199.5568,68.1352,291.9811,0.00037466,5.681e-05,0.0,0 STARLINK-4120,1 53537U 22101L   24210.39107303  .00005681  00000-0  37466-3 0  9993,2 53537  53.2150 199.5568 0001609  68.1352 291.9811 15.08848351107209,6917.855,95.437,540.833,538.607,0.0
53537.0,STARLINK-4120,PAYLOAD,2024-07-29 09:13:55,15.08850128,0.000166,53.2153,195.0958,68.2758,291.8411,0.00017639,2.521e-05,0.0,0 STARLINK-4120,1 53537U 22101L   24211.38466866  .00002521  00000-0  17639-3 0  9995,2 53537  53.2153 195.0958 0001660  68.2758 291.8411 15.08850128107350,6917.849,95.437,540.863,538.566,0.0
53537.0,STARLINK-4120,PAYLOAD,2024-07-29 15:35:27,15.08856013,0.0001662,53.2154,193.907,69.1726,290.9444,0.0002203,3.221e-05,0.0,0 STARLINK-4120,1 53537U 22101L   24211.64962351  .00003221  00000-0  22030-3 0  9993,2 53537  53.2154 193.9070 0001662  69.1726 290.9444 15.08856013107399,6917.831,95.437,540.846,538.547,0.0
53537.0,STARLINK-4120,PAYLOAD,2024-07-30 04:18:32,15.08843537,0.0001622,53.2161,191.5306,87.3236,272.7942,-7.0591e-05,-1.411e-05,0.0,0 STARLINK-4120,1 53537U 22101L   24212.17954606 -.00001411  00000-0 -70591-4 0  9993,2 53537  53.2161 191.5306 0001622  87.3236 272.7942 15.08843537107474,6917.87,95.437,540.857,538.612,0.0
53537.0,STARLINK-4120,PAYLOAD,2024-07-30 09:04:42,15.08842026,0.0001581,53.2174,190.6374,84.9243,275.193,0.00013037,1.788e-05,0.0,0 STARLINK-4120,1 53537U 22101L   24212.37826928  .00001788  00000-0  13037-3 0  9996,2 53537  53.2174 190.6374 0001581  84.9243 275.1930 15.08842026107508,6917.874,95.437,540.833,538.645,0.0
53537.0,STARLINK-4120,PAYLOAD,2024-07-30 15:26:14,15.08849884,0.0001648,53.2174,189.4479,81.478,278.6399,2.0847e-05,4.4e-07,0.0,0 STARLINK-4120,1 53537U 22101L   24212.64322450  .00000044  00000-0  20847-4 0  9999,2 53537  53.2174 189.4479 0001648  81.4780 278.6399 15.08849884107542,6917.85,95.437,540.855,538.575,0.0
53537.0,STARLINK-4120,PAYLOAD,2024-07-31 04:09:20,15.08835718,0.0001641,53.2172,187.0692,85.5619,274.5561,-5.0913e-06,-3.69e-06,0.0,0 STARLINK-4120,1 53537U 22101L   24213.17315485 -.00000369  00000-0 -50913-5 0  9998,2 53537  53.2172 187.0692 0001641  85.5619 274.5561 15.08835718107626,6917.893,95.438,540.894,538.623,0.0
53537.0,STARLINK-4120,PAYLOAD,2024-07-31 05:44:43,15.08838162,0.0001626,53.2172,186.7716,82.8455,277.2722,-6.2033e-06,-3.87e-06,0.0,0 STARLINK-4120,1 53537U 22101L   24213.23939341 -.00000387  00000-0 -62033-5 0  9994,2 53537  53.2172 186.7716 0001626  82.8455 277.2722 15.08838162107636,6917.886,95.438,540.876,538.626,0.0
53537.0,STARLINK-4120,PAYLOAD,2024-07-31 15:17:01,15.08843547,0.0001648,53.2173,184.9878,84.7942,275.3238,3.009e-05,1.91e-06,0.0,0 STARLINK-4120,1 53537U 22101L   24213.63682845  .00000191  00000-0  30090-4 0  9990,2 53537  53.2173 184.9878 0001648  84.7942 275.3238 15.08843547107692,6917.87,95.437,540.875,538.594,0.0
53537.0,STARLINK-4120,PAYLOAD,2024-08-01 05:35:30,15.08843836,0.000164,53.2171,182.3099,84.1974,275.9205,0.00010042,1.311e-05,0.0,0 STARLINK-4120,1 53537U 22101L   24214.23298790  .00001311  00000-0  10042-3 0  9998,2 53537  53.2171 182.3099 0001640  84.1974 275.9205 15.08843836107789,6917.869,95.437,540.868,538.599,0.0
53537.0,STARLINK-4120,PAYLOAD,2024-08-01 15:07:48,15.088543,0.0001726,53.2172,180.5243,76.543,283.5754,0.0001267,1.73e-05,0.0,0 STARLINK-4120,1 53537U 22101L   24214.63041991  .00001730  00000-0  12670-3 0  9995,2 53537  53.2172 180.5243 0001726  76.5430 283.5754 15.08854300107847,6917.837,95.437,540.896,538.508,0.0
53537.0,STARLINK-4120,PAYLOAD,2024-08-02 03:50:55,15.08820266,0.0001763,53.2163,178.1439,88.1133,272.0061,-0.00014408,-2.579e-05,0.0,0 STARLINK-4120,1 53537U 22101L   24215.16036361 -.00002579  00000-0 -14408-3 0  9994,2 53537  53.2163 178.1439 0001763  88.1133 272.0061 15.08820266107924,6917.941,95.439,541.025,538.586,0.0
53537.0,STARLINK-4120,PAYLOAD,2024-08-02 05:26:18,15.08821016,0.0001708,53.216,177.8472,87.9381,272.1807,-0.00012319,-2.247e-05,0.0,0 STARLINK-4120,1 53537U 22101L   24215.22660398 -.00002247  00000-0 -12319-3 0  9995,2 53537  53.2160 177.8472 0001708  87.9381 272.1807 15.08821016107939,6917.938,95.439,540.985,538.622,0.0
53537.0,STARLINK-4120,PAYLOAD,2024-08-02 21:20:09,15.08836582,0.0001327,53.2152,174.8743,92.9694,267.145,0.00018309,2.627e-05,0.0,0 STARLINK-4120,1 53537U 22101L   24215.88900026  .00002627  00000-0  18309-3 0  9997,2 53537  53.2152 174.8743 0001327  92.9694 267.1450 15.08836582108032,6917.891,95.438,540.674,538.838,0.0
53537.0,STARLINK-4120,PAYLOAD,2024-08-03 03:41:41,15.08851041,0.0001423,53.2144,173.6858,96.456,263.6594,0.00047953,7.354e-05,0.0,0 STARLINK-4120,1 53537U 22101L   24216.15395636  .00007354  00000-0  47953-3 0  9992,2 53537  53.2144 173.6858 0001423  96.4560 263.6594 15.08851041108076,6917.847,95.437,540.696,538.727,0.0
53537.0,STARLINK-4120,PAYLOAD,2024-08-03 14:49:23,15.08862556,0.0001518,53.2144,171.6038,89.1427,270.9739,0.00092966,0.00014548,0.0,0 STARLINK-4120,1 53537U 22101L   24216.61763546  .00014548  00000-0  92966-3 0  9999,2 53537  53.2144 171.6038 0001518  89.1427 270.9739 15.08862556108143,6917.811,95.436,540.727,538.626,0.0
53537.0,STARLINK-4120,PAYLOAD,2024-08-04 03:32:28,15.08855111,0.0001638,53.2156,169.2262,80.9395,279.1782,0.0017382,0.00027495,0.0,0 STARLINK-4120,1 53537U 22101L   24217.14755438  .00027495  00000-0  17382-2 0  9992,2 53537  53.2156 169.2262 0001638  80.9395 279.1782 15.08855111108221,6917.834,95.437,540.832,538.566,0.0
53537.0,STARLINK-4120,PAYLOAD,2024-08-04 21:01:42,15.08872145,0.0001621,53.2151,165.9541,79.5467,280.5708,0.0022413,0.00035594,0.0,0 STARLINK-4120,1 53537U 22101L   24217.87619017  .00035594  00000-0  22413-2 0  9994,2 53537  53.2151 165.9541 0001621  79.5467 280.5708 15.08872145108337,6917.782,95.436,540.769,538.526,0.0
53537.0,STARLINK-4120,PAYLOAD,2024-08-05 03:23:15,15.08856569,0.0001364,53.2161,164.7643,91.6866,268.4282,0.00071089,0.00011049,0.0,0 STARLINK-4120,1 53537U 22101L   24218.14114672  .00011049  00000-0  71089-3 0  9995,2 53537  53.2161 164.7643 0001364  91.6866 268.4282 15.08856569108378,6917.83,95.437,540.638,538.751,0.0
53537.0,STARLINK-4120,PAYLOAD,2024-08-05 12:55:33,15.08864335,0.0001402,53.2173,162.9819,92.9093,267.206,0.00086307,0.00013484,0.0,0 STARLINK-4120,1 53537U 22101L   24218.53858214  .00013484  00000-0  86307-3 0  9999,2 53537  53.2173 162.9819 0001402  92.9093 267.2060 15.08864335108433,6917.806,95.436,540.641,538.701,0.0
